#aV2019  7  6  0  0  0.00000000     288 DD+AD WGS84 FIT  NGA
## 2060 518400.00000000   300.00000000 58670 0.0000000000000
+   31     1  2  3  5  6  7  8  9 10 11 12 13 14 15 16 17 18
+         19 20 21 22 23 24 25 26 27 28 29 30 31 32  0  0  0
+          0  0  0  0  0  0  0  0  0  0  0  0  0  0  0  0  0
+          0  0  0  0  0  0  0  0  0  0  0  0  0  0  0  0  0
+          0  0  0  0  0  0  0  0  0  0  0  0  0  0  0  0  0
++         2  2  2  2  2  2  2  2  2  2  2  2  2  2  2  2  2
++         2  2  2  2  2  2  2  2  2  2  2  2  2  2  0  0  0
++         0  0  0  0  0  0  0  0  0  0  0  0  0  0  0  0  0
++         0  0  0  0  0  0  0  0  0  0  0  0  0  0  0  0  0
++         0  0  0  0  0  0  0  0  0  0  0  0  0  0  0  0  0
%c cc cc ccc ccc cccc cccc cccc cccc ccccc ccccc ccccc ccccc
%c cc cc ccc ccc cccc cccc cccc cccc ccccc ccccc ccccc ccccc
%f  0.0000000  0.000000000  0.00000000000  0.000000000000000
%f  0.0000000  0.000000000  0.00000000000  0.000000000000000
%i    0    0    0    0      0      0      0      0         0
%i    0    0    0    0      0      0      0      0         0
/*      NGA, ST. LOUIS,MO.                                  
/*   EPHEMERIS COMPUTED FROM 2 DAYS OF DATA                 
/*   EPOCHA v5 SMOOTHER                                     
/*   G1762 IERS2010 SATAF SATAPC                            
*  2019  7  6  7 40  0.00000000
P  1 -22528.784213 -14401.143911   -356.849459    -59.691353                    
V  1   1271.452277  -1623.769523 -31876.034492     -0.102728                    
P  2   7267.526172  18522.479000  18273.315495   -253.759851                    
V  2 -20038.691926  -9077.130926  17625.339602     -0.087478                    
P  3 -12963.564314 -12950.459426  19216.907605    182.571108                    
V  3   2003.914023 -24405.007719 -14971.066423     -0.018871                    
P  5   2802.096375  26006.517784  -4041.442904      0.196402                    
V  5  -3277.756720   5005.689108  31096.587746     -0.002242                    
P  6  -7728.805006  12741.635131  22025.060460    157.745801                    
V  6 -23710.535840 -14557.510811    134.534386     -0.110691                    
P  7 -23095.240670  -4144.032269 -12627.196568    -58.702032                    
V  7 -12570.374653 -10594.754932  25441.122872     -0.076733                    
P  8 -11510.606338 -10470.986282 -21522.244815   -150.136433                    
V  8  23703.646577 -13621.662128  -5839.543674     -0.014639                    
P  9 -24285.352888   6660.706827   8419.547198    376.908788                    
V  9   8007.202139  -7727.154857  29064.661711     -0.081221                    
P 10  11485.798455 -17812.036869 -15817.509267     -6.743180                    
V 10   1467.690118  20325.193583 -21931.633923     -0.126816                    
P 11 -22513.614922 -10167.188224  -9929.545551   -567.976883                    
V 11  12416.970565  -2678.321058 -27124.489769      0.091470                    
P 12  10586.164710  16090.300212  18145.922296    226.540204                    
V 12  -3439.638494  23144.050658 -18139.306552     -0.036033                    
P 13    920.174473  15594.349902 -21582.341158    -55.894477                    
V 13 -25471.515719   9366.564837   5762.408288      0.017126                    
P 14  13687.895436 -17399.090581  14865.387825    -72.836137                    
V 14  17678.352733  -5474.464070 -23377.258045      0.017838                    
P 15  13559.262426   9821.149878 -20946.689220   -302.671601                    
V 15 -21326.173118  14985.198224  -6473.455802      0.023974                    
P 16     27.729791 -25972.850377  -4484.649503    -53.878069                    
V 16   3033.673545  -5196.020759  31848.139951     -0.031739                    
P 17 -20051.890368  15482.721154   8235.144217     83.828418                    
V 17  -9773.225468   2474.601832 -30013.689110      0.065720                    
P 18 -17949.371662 -17516.170946  -9430.271815     67.647258                    
V 18  11059.320088   3231.627160 -28451.079593      0.030094                    
P 19 -15989.685926  16281.295867  13333.358168   -297.707960                    
V 19 -16726.828811   5037.287668 -25569.481856      0.048213                    
P 20  14504.964577  -8790.181600 -20511.162011    525.799248                    
V 20   3498.195034  25748.090169  -8763.253581      0.002158                    
P 21  20753.012830  -1524.001881 -15618.359228   -159.911616                    
V 21  17649.012156  12353.673907  21349.627124      0.070822                    
P 22 -11566.266206 -19384.041249  14297.025500   -727.215986                    
V 22   1952.562504 -17924.524839 -23007.269942     -0.052926                    
P 23 -19311.395353  -4309.878905  18240.490895   -178.544968                    
V 23  18753.623356 -12326.559372  16870.503910      0.017708                    
P 24  21897.785205  14969.601895  -3550.106682    -68.456096                    
V 24  -5291.415419    726.631299 -30607.762738     -0.004934                    
P 25  14851.513101   1746.363305  21745.239565   -771.324984                    
V 25   -931.367308  28070.151814  -1360.026312     -0.028315                    
P 26   4757.231435 -25193.309899   6550.075715    244.403747                    
V 26   3098.149107   8406.383048  30166.028565      0.093194                    
P 27   1608.850362 -16672.427893 -20647.762544   -177.115376                    
V 27  23301.472924 -11561.548794  11503.087882     -0.105837                    
P 28 -12406.521492  17313.223697 -15327.426864    766.793650                    
V 28    817.349593 -20532.285472 -22866.974474     -0.003916                    
P 29  23720.917110  -2304.748961  11703.955624    158.593386                    
V 29 -12813.887878   7748.944428  27395.834983     -0.096955                    
P 30 -17191.946819   5536.563341 -19508.782962   -137.625979                    
V 30 -19808.572713 -15049.365968  12971.236208     -0.074886                    
P 31   6815.965181 -13697.607262  21684.099233     26.230278                    
V 31  23253.917813  14825.119755   2491.059818     -0.026093                    
P 32  18982.225689 -16748.309787   7892.620086    -14.277170                    
V 32  10118.077276  -2295.721631 -29559.088062      0.155032                    
EOF
